    OMMSpacecraftParams:
      type: object
      description: Spacecraft physical parameters
      properties:
        MASS:
          type: number
          description: Spacecraft mass (kg)
        SOLAR_RAD_AREA:
          type: number
          description: Solar radiation pressure area (m^2)
        SOLAR_RAD_COEFF:
          type: number
          description: Solar radiation pressure coefficient (dimensionless)
        DRAG_AREA:
          type: number
          description: Atmospheric drag area (m^2)
        DRAG_COEFF:
          type: number
          description: Drag coefficient (dimensionless)

    OMMCovariance:
      type: object
      description: 6x6 position/velocity covariance matrix (lower triangular, 21 elements)
      properties:
        COV_REF_FRAME:
          type: string
          description: Reference frame for covariance
        CX_X:
          type: number
          description: Position X variance (km^2)
        CY_X:
          type: number
          description: Position Y-X covariance (km^2)
        CY_Y:
          type: number
          description: Position Y variance (km^2)
        CZ_X:
          type: number
          description: Position Z-X covariance (km^2)
        CZ_Y:
          type: number
          description: Position Z-Y covariance (km^2)
        CZ_Z:
          type: number
          description: Position Z variance (km^2)
        CX_DOT_X:
          type: number
          description: Velocity X - Position X covariance (km^2/s)
        CX_DOT_Y:
          type: number
          description: Velocity X - Position Y covariance (km^2/s)
        CX_DOT_Z:
          type: number
          description: Velocity X - Position Z covariance (km^2/s)
        CX_DOT_X_DOT:
          type: number
          description: Velocity X variance (km^2/s^2)
        CY_DOT_X:
          type: number
          description: Velocity Y - Position X covariance (km^2/s)
        CY_DOT_Y:
          type: number
          description: Velocity Y - Position Y covariance (km^2/s)
        CY_DOT_Z:
          type: number
          description: Velocity Y - Position Z covariance (km^2/s)
        CY_DOT_X_DOT:
          type: number
          description: Velocity Y - Velocity X covariance (km^2/s^2)
        CY_DOT_Y_DOT:
          type: number
          description: Velocity Y variance (km^2/s^2)
        CZ_DOT_X:
          type: number
          description: Velocity Z - Position X covariance (km^2/s)
        CZ_DOT_Y:
          type: number
          description: Velocity Z - Position Y covariance (km^2/s)
        CZ_DOT_Z:
          type: number
          description: Velocity Z - Position Z covariance (km^2/s)
        CZ_DOT_X_DOT:
          type: number
          description: Velocity Z - Velocity X covariance (km^2/s^2)
        CZ_DOT_Y_DOT:
          type: number
          description: Velocity Z - Velocity Y covariance (km^2/s^2)
        CZ_DOT_Z_DOT:
          type: number
          description: Velocity Z variance (km^2/s^2)

    OMMParseResponse:
      type: object
      properties:
        epoch:
          type: number
          description: Epoch as ephemeris time (seconds past J2000 TDB)
        elements:
          type: array
          items:
            type: number
          description: 10-element orbital elements array
        tle:
          type: object
          properties:
            line1:
              type: string
            line2:
              type: string
      example:
        epoch: 758592069.184
        elements: [0.0006703, 51.64, 208.9163, 30.0825, 330.0579, 15.4956083, 0.00016717, 0.0, 0.0001027, 0.0]
        tle:
          line1: "1 25544U 98067A   24015.50000000  .00016717  00000-0  10270-3 0  9025"
          line2: "2 25544  51.6400 208.9163 0006703  30.0825 330.0579 15.49560830    19"

    OMMOutput:
      $ref: '#/components/schemas/OMMInput'

    TLEOutput:
      type: object
      properties:
        line1:
          type: string
          description: TLE line 1 (69 characters)
        line2:
          type: string
          description: TLE line 2 (69 characters)
        name:
          type: string
          description: Satellite name (optional)
      example:
        line1: "1 25544U 98067A   24015.50000000  .00016717  00000-0  10270-3 0  9025"
        line2: "2 25544  51.6400 208.9163 0006703  30.0825 330.0579 15.49560830    19"
        name: "ISS (ZARYA)"

    Error:
      type: object
      properties:
        error:
          type: string
          description: Error message
